OBJECT_NAME,OBJECT_ID,EPOCH,MEAN_MOTION,ECCENTRICITY,INCLINATION,RA_OF_ASC_NODE,ARG_OF_PERICENTER,MEAN_ANOMALY,EPHEMERIS_TYPE,CLASSIFICATION_TYPE,NORAD_CAT_ID,ELEMENT_SET_NO,REV_AT_EPOCH,BSTAR,MEAN_MOTION_DOT,MEAN_MOTION_DDOT
ASTRA 3B,2010-021A,2026-06-17T21:38:08.947680,1.00271247,.00041683,1.4715,83.5479,6.0327,164.5876,0,U,36581,999,5887,0,.131E-5,0
COMSATBW-2,2010-021B,2026-06-17T21:35:07.208736,1.00272940,.00026063,0.0475,67.0533,35.5039,140.5623,0,U,36582,999,5896,0,.83E-6,0
BEIDOU-2 G3,2010-024A,2026-06-17T20:11:22.907040,1.00270944,.00077495,4.5176,61.5149,351.0550,236.0639,0,U,36590,999,5877,0,-.143E-5,0
BADR-5,2010-025A,2026-06-17T21:40:08.755968,1.00272387,.00038677,0.0561,123.9087,68.7915,68.9463,0,U,36592,999,5322,0,.148E-5,0
COMS 1,2010-032A,2026-06-17T20:08:53.147328,0.99162618,.00115312,4.8074,75.3468,11.8661,191.9386,0,U,36744,999,5109,0,.66E-6,0
ARABSAT-5A,2010-032B,2026-06-17T21:40:08.755968,1.00275468,.00058732,0.0531,37.1198,72.4524,152.1275,0,U,36745,999,5865,0,.148E-5,0
ECHOSTAR 15,2010-034A,2026-06-17T02:55:41.638080,1.00271330,.0001951,0.0379,67.2237,353.8646,129.4280,0,U,36792,999,5832,0,-.4E-7,0
BEIDOU-2 IGSO-1,2010-036A,2026-06-17T22:01:50.166336,1.00271928,.0059238,54.3019,162.9525,225.3267,315.9903,0,U,36828,999,5810,0,-.86E-6,0
NILESAT 201,2010-037A,2026-06-16T23:14:48.147648,1.00272441,.00045357,0.0291,227.1951,249.2801,130.4843,0,U,36830,999,5837,0,-.6E-6,0
RASCOM-QAF 1R,2010-037B,2026-06-16T22:04:38.846784,1.00272678,.0006769,0.0270,75.8799,5.1949,158.1701,0,U,36831,999,5830,0,.16E-6,0
AEHF-1 (USA 214),2010-039A,2026-06-17T21:39:53.780256,1.00274872,.00039126,8.2218,68.0425,9.0891,183.9496,0,U,36868,999,5366,0,.138E-5,0
XM-5,2010-053A,2026-06-17T20:58:25.895712,1.00270093,.00028927,0.0616,273.1762,287.5831,264.7647,0,U,37185,999,5749,0,-.28E-6,0
BSAT-3B,2010-056B,2026-06-17T22:02:42.581760,1.00268913,.00016795,0.0602,239.3070,305.2343,162.1383,0,U,37207,999,5210,0,-.355E-5,0
BEIDOU-2 G4,2010-057A,2026-06-17T20:34:28.193664,1.00270667,.00053083,3.6487,68.9385,196.6557,109.1248,0,U,37210,999,5729,0,-.12E-5,0
SKYTERRA 1,2010-061A,2026-06-17T15:54:31.758912,1.00271855,.00022413,5.1268,50.8592,8.6647,343.6830,0,U,37218,999,5719,0,-.126E-5,0
HYLAS 1,2010-065A,2026-06-17T19:52:42.017376,1.00272604,.00008462,5.6459,73.0125,322.6364,182.4019,0,U,37237,999,689,0,.81E-6,0
INTELSAT 17 (IS-17),2010-065B,2026-06-17T21:50:13.778880,1.00271782,.00026095,0.0043,319.1001,139.1416,201.4682,0,U,37238,999,5325,0,-.7E-7,0
BEIDOU-2 IGSO-2,2010-068A,2026-06-15T20:29:59.130240,1.00282881,.0055883,47.5513,271.8488,212.6776,194.9519,0,U,37256,999,5678,0,-.214E-5,0
EUTELSAT KA-SAT 9A,2010-069A,2026-06-16T19:54:09.036000,1.00274919,.0003557,0.0613,11.4903,118.4700,82.6802,0,U,37258,999,4400,0,.59E-6,0
HISPASAT 30W-5,2010-070A,2026-06-17T21:22:53.382432,1.00271739,.00051605,0.0512,110.4621,353.9505,92.4514,0,U,37264,999,5319,0,-.221E-5,0
KOREASAT 6,2010-070B,2026-06-17T20:34:20.706240,1.00270806,.00020959,0.0125,49.1042,46.2478,279.2172,0,U,37265,999,5677,0,-.117E-5,0
BEIDOU-2 IGSO-3,2011-013A,2026-06-17T15:19:34.540608,1.00267211,.00345609,62.4080,40.1465,184.2780,19.0427,0,U,37384,999,5566,0,-.188E-5,0
INTELSAT 28 (IS-28),2011-016A,2026-06-17T21:22:23.430144,1.00270813,.00036403,1.8089,82.5978,5.1039,107.3131,0,U,37392,999,5329,0,-.231E-5,0
YAHSAT 1A,2011-016B,2026-06-16T23:31:51.172896,1.00273430,.00029103,0.0177,10.4655,81.6649,218.5727,0,U,37393,999,4240,0,0,0
SBIRS GEO-1 (USA 230),2011-019A,2026-06-17T20:03:25.986816,1.00271530,.00021293,4.5373,53.1246,31.4666,174.1494,0,U,37481,999,5540,0,.92E-6,0
TELSTAR 14R,2011-021A,2026-06-17T09:14:45.861792,1.00271141,.00021658,0.0141,48.4927,8.9017,283.9294,0,U,37602,999,5583,0,-.284E-5,0
GSAT-8,2011-022A,2026-06-17T21:47:06.577728,1.00271891,.00021756,2.1337,81.8172,200.0983,6.1019,0,U,37605,999,5322,0,.78E-6,0
ST-2,2011-022B,2026-06-17T21:16:51.070080,1.00271676,.00016096,0.0178,34.8073,60.4233,218.1289,0,U,37606,999,5528,0,-.217E-5,0
ZHONGXING-10,2011-026A,2026-06-17T20:13:07.739616,1.00267890,.00031899,1.0487,84.1808,5.9650,204.6786,0,U,37677,999,5500,0,-.193E-5,0
SES-3,2011-035A,2026-06-17T21:02:03.049152,1.00271340,.00022656,1.3294,83.0775,355.0140,40.5458,0,U,37748,999,5460,0,-.108E-5,0
KAZSAT-2,2011-035B,2026-06-17T16:52:00.158304,1.00271691,.00012347,0.0332,224.6477,292.7382,88.0883,0,U,37749,999,5340,0,-.203E-5,0
BEIDOU-2 IGSO-4,2011-038A,2026-06-16T16:27:02.962080,1.00285273,.01595197,54.6000,165.6770,231.4431,207.9860,0,U,37763,999,5464,0,.19E-6,0
