ASTRA 3B                
1 36581U 10021A   26168.90149245  .00000131  00000+0  00000+0 0  9997
2 36581   1.4715  83.5479 0004168   6.0327 164.5876  1.00271247 58875
COMSATBW-2              
1 36582U 10021B   26168.89938899  .00000083  00000+0  00000+0 0  9993
2 36582   0.0475  67.0533 0002606  35.5039 140.5623  1.00272940 58969
BEIDOU-2 G3             
1 36590U 10024A   26168.84123735 -.00000143  00000+0  00000+0 0  9993
2 36590   4.5176  61.5149 0007749 351.0550 236.0639  1.00270944 58773
BADR-5                  
1 36592U 10025A   26168.90287912  .00000148  00000+0  00000+0 0  9995
2 36592   0.0561 123.9087 0003867  68.7915  68.9463  1.00272387 53227
COMS 1                  
1 36744U 10032A   26168.83950402  .00000066  00000+0  00000+0 0  9994
2 36744   4.8074  75.3468 0011531  11.8661 191.9386  0.99162618 51090
ARABSAT-5A              
1 36745U 10032B   26168.90287912  .00000148  00000+0  00000+0 0  9993
2 36745   0.0531  37.1198 0005873  72.4524 152.1275  1.00275468 58652
ECHOSTAR 15             
1 36792U 10034A   26168.12200970 -.00000004  00000+0  00000+0 0  9992
2 36792   0.0379  67.2237 0001951 353.8646 129.4280  1.00271330 58327
BEIDOU-2 IGSO-1         
1 36828U 10036A   26168.91794174 -.00000086  00000+0  00000+0 0  9995
2 36828  54.3019 162.9525 0059238 225.3267 315.9903  1.00271928 58109
NILESAT 201             
1 36830U 10037A   26167.96861282 -.00000060  00000+0  00000+0 0  9990
2 36830   0.0291 227.1951 0004535 249.2801 130.4843  1.00272441 58371
RASCOM-QAF 1R           
1 36831U 10037B   26167.91989406  .00000016  00000+0  00000+0 0  9995
2 36831   0.0270  75.8799 0006769   5.1949 158.1701  1.00272678 58305
AEHF-1 (USA 214)        
1 36868U 10039A   26168.90270579  .00000138  00000+0  00000+0 0  9996
2 36868   8.2218  68.0425 0003912   9.0891 183.9496  1.00274872 53662
XM-5                    
1 37185U 10053A   26168.87391083 -.00000028  00000+0  00000+0 0  9994
2 37185   0.0616 273.1762 0002892 287.5831 264.7647  1.00270093 57495
BSAT-3B                 
1 37207U 10056B   26168.91854840 -.00000355  00000+0  00000+0 0  9995
2 37207   0.0602 239.3070 0001679 305.2343 162.1383  1.00268913 52108
BEIDOU-2 G4             
1 37210U 10057A   26168.85727076 -.00000120  00000+0  00000+0 0  9993
2 37210   3.6487  68.9385 0005308 196.6557 109.1248  1.00270667 57294
SKYTERRA 1              
1 37218U 10061A   26168.66286758 -.00000126  00000+0  00000+0 0  9998
2 37218   5.1268  50.8592 0002241   8.6647 343.6830  1.00271855 57192
HYLAS 1                 
1 37237U 10065A   26168.82826409  .00000081  00000+0  00000+0 0  9993
2 37237   5.6459  73.0125 0000846 322.6364 182.4019  1.00272604  6895
INTELSAT 17 (IS-17)     
1 37238U 10065B   26168.90988170 -.00000007  00000+0  00000+0 0  9996
2 37238   0.0043 319.1001 0002609 139.1416 201.4682  1.00271782 53255
BEIDOU-2 IGSO-2         
1 37256U 10068A   26166.85415660 -.00000214  00000+0  00000+0 0  9990
2 37256  47.5513 271.8488 0055883 212.6776 194.9519  1.00282881 56782
EUTELSAT KA-SAT 9A      
1 37258U 10069A   26167.82927125  .00000059  00000+0  00000+0 0  9991
2 37258   0.0613  11.4903 0003557 118.4700  82.6802  1.00274919 44003
HISPASAT 30W-5          
1 37264U 10070A   26168.89089563 -.00000221  00000+0  00000+0 0  9995
2 37264   0.0512 110.4621 0005160 353.9505  92.4514  1.00271739 53192
KOREASAT 6              
1 37265U 10070B   26168.85718410 -.00000117  00000+0  00000+0 0  9996
2 37265   0.0125  49.1042 0002095  46.2478 279.2172  1.00270806 56779
BEIDOU-2 IGSO-3         
1 37384U 11013A   26168.63859422 -.00000188  00000+0  00000+0 0  9999
2 37384  62.4080  40.1465 0034560 184.2780  19.0427  1.00267211 55660
INTELSAT 28 (IS-28)     
1 37392U 11016A   26168.89054896 -.00000231  00000+0  00000+0 0  9990
2 37392   1.8089  82.5978 0003640   5.1039 107.3131  1.00270813 53299
YAHSAT 1A               
1 37393U 11016B   26167.98045339  .00000000  00000+0  00000+0 0  9995
2 37393   0.0177  10.4655 0002910  81.6649 218.5727  1.00273430 42401
SBIRS GEO-1 (USA 230)   
1 37481U 11019A   26168.83571744  .00000092  00000+0  00000+0 0  9996
2 37481   4.5373  53.1246 0002129  31.4666 174.1494  1.00271530 55401
TELSTAR 14R             
1 37602U 11021A   26168.38525303 -.00000284  00000+0  00000+0 0  9998
2 37602   0.0141  48.4927 0002165   8.9017 283.9294  1.00271141 55834
GSAT-8                  
1 37605U 11022A   26168.90771502  .00000078  00000+0  00000+0 0  9994
2 37605   2.1337  81.8172 0002175 200.0983   6.1019  1.00271891 53221
ST-2                    
1 37606U 11022B   26168.88670220 -.00000217  00000+0  00000+0 0  9993
2 37606   0.0178  34.8073 0001609  60.4233 218.1289  1.00271676 55280
ZHONGXING-10            
1 37677U 11026A   26168.84245069 -.00000193  00000+0  00000+0 0  9993
2 37677   1.0487  84.1808 0003189   5.9650 204.6786  1.00267890 55003
SES-3                   
1 37748U 11035A   26168.87642418 -.00000108  00000+0  00000+0 0  9990
2 37748   1.3294  83.0775 0002265 355.0140  40.5458  1.00271340 54602
KAZSAT-2                
1 37749U 11035B   26168.70277961 -.00000203  00000+0  00000+0 0  9996
2 37749   0.0332 224.6477 0001234 292.7382  88.0883  1.00271691 53409
BEIDOU-2 IGSO-4         
1 37763U 11038A   26167.68545095  .00000019  00000+0  00000+0 0  9991
2 37763  54.6000 165.6770 0159519 231.4431 207.9860  1.00285273 54642
